IRIDIUM 135             
1 43070U 17083A   26181.40758355 -.00000024  00000+0 -15526-4 0  9998
2 43070  86.3973 316.4882 0002082  92.8635 267.2799 14.34217255446043
IRIDIUM 138             
1 43071U 17083B   26181.43295367 -.00000002  00000+0 -76663-5 0  9997
2 43071  86.3986 316.1751 0002054  87.3515 272.7916 14.34217435446036
IRIDIUM 116             
1 43072U 17083C   26181.47100928  .00000002  00000+0 -62931-5 0  9992
2 43072  86.3973 316.4475 0002129 101.7509 258.3926 14.34217444446071
IRIDIUM 130             
1 43073U 17083D   26181.43929481  .00000090  00000+0  25052-4 0  9990
2 43073  86.3984 316.7370 0002046  97.9303 262.2125 14.34217734446018
IRIDIUM 151             
1 43074U 17083E   26181.41392584  .00000014  00000+0 -21952-5 0  9990
2 43074  86.3974 316.5293 0002100  94.1124 266.0312 14.34217555446034
IRIDIUM 134             
1 43075U 17083F   26181.45198016  .00000076  00000+0  20161-4 0  9996
2 43075  86.3980 316.5213 0002154  94.9874 265.1568 14.34217126446007
IRIDIUM 137             
1 43076U 17083G   26181.46466708  .00000032  00000+0  44459-5 0  9993
2 43076  86.3980 316.6091 0002564 100.1917 259.9568 14.34217773446072
IRIDIUM 141             
1 43077U 17083H   26181.45832385  .00000010  00000+0 -35869-5 0  9993
2 43077  86.3972 316.4418 0002078  91.7499 268.3935 14.34217519446075
IRIDIUM 153             
1 43078U 17083J   26181.34073416  .00000036  00000+0  57953-5 0  9999
2 43078  86.3968 284.9716 0002157  91.3013 268.8430 14.34217691447164
IRIDIUM 131             
1 43079U 17083K   26181.44563899  .00000410  00000+0  13920-3 0  9990
2 43079  86.3982 316.6337 0002239  93.0624 267.0828 14.34218295446006
IRIDIUM 144             
1 43249U 18030A   26181.34707578  .00000083  00000+0  22749-4 0  9991
2 43249  86.3965 284.8977 0002227  98.1908 261.9541 14.34216975432025
IRIDIUM 149             
1 43250U 18030B   26181.35341969 -.00000020  00000+0 -14149-4 0  9990
2 43250  86.3960 284.8619 0002176  93.6107 266.5338 14.34217325432046
IRIDIUM 157             
1 43251U 18030C   26181.37244728  .00000165  00000+0  51722-4 0  9994
2 43251  86.3964 284.9070 0002219  94.7821 265.3628 14.34217645432028
IRIDIUM 140             
1 43252U 18030D   26181.32170640  .00000058  00000+0  13705-4 0  9991
2 43252  86.3965 284.9411 0002182  95.4755 264.6690 14.34217406432073
IRIDIUM 145             
1 43253U 18030E   26181.37877910  .00000218  00000+0  70656-4 0  9997
2 43253  86.3964 284.8894 0002235 102.8844 257.2602 14.34222181432019
IRIDIUM 146             
1 43254U 18030F   26181.35976227  .00000002  00000+0 -62249-5 0  9999
2 43254  86.3963 284.9099 0002142  98.0536 262.0903 14.34217426432023
IRIDIUM 148             
1 43255U 18030G   26181.32804928 -.00000001  00000+0 -73907-5 0  9998
2 43255  86.3963 284.9664 0002226  95.6011 264.5439 14.34217484432054
IRIDIUM 142             
1 43256U 18030H   26181.36610477 -.00000002  00000+0 -76400-5 0  9999
2 43256  86.3959 284.8389 0002171  99.5908 260.5533 14.34217455432026
IRIDIUM 150             
1 43257U 18030J   26181.33439173  .00000096  00000+0  27296-4 0  9998
2 43257  86.3966 284.9687 0002150  95.5184 264.6258 14.34217251432041
IRIDIUM 143             
1 43258U 18030K   26181.31535994  .00000244  00000+0  80071-4 0  9990
2 43258  86.3969 285.0698 0002226  98.1751 261.9698 14.34219908431972
IRIDIUM 161             
1 43478U 18047C   26181.27252345  .00000323  00000+0  89891-4 0  9990
2 43478  86.4480  83.0002 0002476  80.6810 279.4671 14.43279339427029
IRIDIUM 152             
1 43479U 18047D   26181.21831624 -.00000523  00000+0 -19388-3 0  9995
2 43479  86.3953  82.8838 0002163  80.4971 279.6470 14.34214163424353
IRIDIUM 147             
1 43480U 18047E   26181.22465384  .00000135  00000+0  41209-4 0  9999
2 43480  86.3954  82.8867 0002214  87.2180 272.9269 14.34218872424355
IRIDIUM 110             
1 43481U 18047F   26181.23099886  .00000053  00000+0  12027-4 0  9996
2 43481  86.3957  82.9763 0002426  77.4573 282.6894 14.34217781424346
IRIDIUM 162             
1 43482U 18047G   26181.19689080  .00000321  00000+0  89442-4 0  9996
2 43482  86.4478  82.9227 0002243  83.1139 277.0317 14.43281038427000
IRIDIUM 160             
1 43569U 18061A   26181.59544546 -.00000002  00000+0 -78027-5 0  9995
2 43569  86.3949  51.1899 0002154  85.8986 274.2456 14.34217480415292
IRIDIUM 166             
1 43570U 18061B   26181.13243557  .00000007  00000+0 -43904-5 0  9995
2 43570  86.3946  51.3340 0002049  88.8635 271.2796 14.34217548415256
IRIDIUM 158             
1 43571U 18061C   26181.58910261  .00000059  00000+0  13840-4 0  9999
2 43571  86.3945  51.1530 0002117  84.1086 276.0351 14.34217709415282
IRIDIUM 165             
1 43572U 18061D   26181.12609360  .00000049  00000+0  10530-4 0  9997
2 43572  86.3951  51.3934 0002149  89.7429 270.4013 14.34217541415240
IRIDIUM 155             
1 43573U 18061E   26181.15780618 -.00000021  00000+0 -14497-4 0  9995
2 43573  86.3946  51.2482 0001958  84.9447 275.1973 14.34217410415215
