OBJECT_NAME,OBJECT_ID,EPOCH,MEAN_MOTION,ECCENTRICITY,INCLINATION,RA_OF_ASC_NODE,ARG_OF_PERICENTER,MEAN_ANOMALY,EPHEMERIS_TYPE,CLASSIFICATION_TYPE,NORAD_CAT_ID,ELEMENT_SET_NO,REV_AT_EPOCH,BSTAR,MEAN_MOTION_DOT,MEAN_MOTION_DDOT
IRIDIUM 135,2017-083A,2026-06-30T09:46:55.218720,14.34217255,.00020823,86.3973,316.4882,92.8635,267.2799,0,U,43070,999,44604,-.15525704E-4,-.24E-6,0
IRIDIUM 138,2017-083B,2026-06-30T10:23:27.197088,14.34217435,.00020544,86.3986,316.1751,87.3515,272.7916,0,U,43071,999,44603,-.7666342E-5,-.2E-7,0
IRIDIUM 116,2017-083C,2026-06-30T11:18:15.201792,14.34217444,.00021299,86.3973,316.4475,101.7509,258.3926,0,U,43072,999,44607,-.629308E-5,.2E-7,0
IRIDIUM 130,2017-083D,2026-06-30T10:32:35.071584,14.34217734,.00020467,86.3984,316.7370,97.9303,262.2125,0,U,43073,999,44601,.25051506E-4,.9E-6,0
IRIDIUM 151,2017-083E,2026-06-30T09:56:03.192576,14.34217555,.00021003,86.3974,316.5293,94.1124,266.0312,0,U,43074,999,44603,-.2195247E-5,.14E-6,0
IRIDIUM 134,2017-083F,2026-06-30T10:50:51.085824,14.34217126,.00021546,86.3980,316.5213,94.9874,265.1568,0,U,43075,999,44600,.20161447E-4,.76E-6,0
IRIDIUM 137,2017-083G,2026-06-30T11:09:07.235712,14.34217773,.00025645,86.3980,316.6091,100.1917,259.9568,0,U,43076,999,44607,.444592E-5,.32E-6,0
IRIDIUM 141,2017-083H,2026-06-30T10:59:59.180640,14.34217519,.00020785,86.3972,316.4418,91.7499,268.3935,0,U,43077,999,44607,-.3586857E-5,.1E-6,0
IRIDIUM 153,2017-083J,2026-06-30T08:10:39.431424,14.34217691,.00021579,86.3968,284.9716,91.3013,268.8430,0,U,43078,999,44716,.5795253E-5,.36E-6,0
IRIDIUM 131,2017-083K,2026-06-30T10:41:43.208736,14.34218295,.00022392,86.3982,316.6337,93.0624,267.0828,0,U,43079,999,44600,.13920323E-3,.41E-5,0
IRIDIUM 144,2018-030A,2026-06-30T08:19:47.347392,14.34216975,.00022273,86.3965,284.8977,98.1908,261.9541,0,U,43249,999,43202,.22749425E-4,.83E-6,0
IRIDIUM 149,2018-030B,2026-06-30T08:28:55.461216,14.34217325,.00021763,86.3960,284.8619,93.6107,266.5338,0,U,43250,999,43204,-.14148666E-4,-.2E-6,0
IRIDIUM 157,2018-030C,2026-06-30T08:56:19.444992,14.34217645,.0002219,86.3964,284.9070,94.7821,265.3628,0,U,43251,999,43202,.51722223E-4,.165E-5,0
IRIDIUM 140,2018-030D,2026-06-30T07:43:15.432960,14.34217406,.00021826,86.3965,284.9411,95.4755,264.6690,0,U,43252,999,43207,.13705427E-4,.58E-6,0
IRIDIUM 145,2018-030E,2026-06-30T09:05:26.514240,14.34222181,.00022359,86.3964,284.8894,102.8844,257.2602,0,U,43253,999,43201,.7065569E-4,.218E-5,0
IRIDIUM 146,2018-030F,2026-06-30T08:38:03.460128,14.34217426,.00021424,86.3963,284.9099,98.0536,262.0903,0,U,43254,999,43202,-.6224883E-5,.2E-7,0
IRIDIUM 148,2018-030G,2026-06-30T07:52:23.457792,14.34217484,.00022266,86.3963,284.9664,95.6011,264.5439,0,U,43255,999,43205,-.7390742E-5,-.1E-7,0
IRIDIUM 142,2018-030H,2026-06-30T08:47:11.452128,14.34217455,.00021717,86.3959,284.8389,99.5908,260.5533,0,U,43256,999,43202,-.7639995E-5,-.2E-7,0
IRIDIUM 150,2018-030J,2026-06-30T08:01:31.445472,14.34217251,.00021506,86.3966,284.9687,95.5184,264.6258,0,U,43257,999,43204,.27296449E-4,.96E-6,0
IRIDIUM 143,2018-030K,2026-06-30T07:34:07.098816,14.34219908,.00022264,86.3969,285.0698,98.1751,261.9698,0,U,43258,999,43197,.80071097E-4,.244E-5,0
IRIDIUM 161,2018-047C,2026-06-30T06:32:26.026080,14.43279339,.00024765,86.4480,83.0002,80.6810,279.4671,0,U,43478,999,42702,.89890607E-4,.323E-5,0
IRIDIUM 152,2018-047D,2026-06-30T05:14:22.523136,14.34214163,.00021635,86.3953,82.8838,80.4971,279.6470,0,U,43479,999,42435,-.19388456E-3,-.523E-5,0
IRIDIUM 147,2018-047E,2026-06-30T05:23:30.091776,14.34218872,.0002214,86.3954,82.8867,87.2180,272.9269,0,U,43480,999,42435,.41208597E-4,.135E-5,0
IRIDIUM 110,2018-047F,2026-06-30T05:32:38.301504,14.34217781,.00024267,86.3957,82.9763,77.4573,282.6894,0,U,43481,999,42434,.12026534E-4,.53E-6,0
IRIDIUM 162,2018-047G,2026-06-30T04:43:31.365120,14.43281038,.00022437,86.4478,82.9227,83.1139,277.0317,0,U,43482,999,42700,.89441569E-4,.321E-5,0
IRIDIUM 160,2018-061A,2026-06-30T14:17:26.487744,14.34217480,.00021543,86.3949,51.1899,85.8986,274.2456,0,U,43569,999,41529,-.7802693E-5,-.2E-7,0
IRIDIUM 166,2018-061B,2026-06-30T03:10:42.433248,14.34217548,.00020492,86.3946,51.3340,88.8635,271.2796,0,U,43570,999,41525,-.4390428E-5,.7E-7,0
IRIDIUM 158,2018-061C,2026-06-30T14:08:18.465504,14.34217709,.0002117,86.3945,51.1530,84.1086,276.0351,0,U,43571,999,41528,.13840254E-4,.59E-6,0
IRIDIUM 165,2018-061D,2026-06-30T03:01:34.487040,14.34217541,.00021494,86.3951,51.3934,89.7429,270.4013,0,U,43572,999,41524,.10529863E-4,.49E-6,0
IRIDIUM 155,2018-061E,2026-06-30T03:47:14.453952,14.34217410,.00019587,86.3946,51.2482,84.9447,275.1973,0,U,43573,999,41521,-.14496841E-4,-.21E-6,0
